[{"OBJECT_NAME":"BEIDOU-3 G3 (PRN 143)","OBJECT_ID":"2020-040A","EPOCH":"2026-03-06T19:37:01.931808","MEAN_MOTION":1.002745,"ECCENTRICITY":0.0004591,"INCLINATION":2.1959,"RA_OF_ASC_NODE":67.1365,"ARG_OF_PERICENTER":319.6533,"MEAN_ANOMALY":182.5056,"EPHEMERIS_TYPE":0,"CLASSIFICATION_TYPE":"U","NORAD_CAT_ID":45807,"ELEMENT_SET_NO":999,"REV_AT_EPOCH":2104,"BSTAR":0,"MEAN_MOTION_DOT":-3.56e-6,"MEAN_MOTION_DDOT":0},{"OBJECT_NAME":"GALAXY 30 (WAAS/PRN 135)","OBJECT_ID":"2020-056C","EPOCH":"2026-03-06T13:21:45.416160","MEAN_MOTION":1.0027167,"ECCENTRICITY":0.00020484,"INCLINATION":0.0219,"RA_OF_ASC_NODE":155.3844,"ARG_OF_PERICENTER":200.5806,"MEAN_ANOMALY":243.7632,"EPHEMERIS_TYPE":0,"CLASSIFICATION_TYPE":"U","NORAD_CAT_ID":46114,"ELEMENT_SET_NO":999,"REV_AT_EPOCH":2026,"BSTAR":0,"MEAN_MOTION_DOT":0,"MEAN_MOTION_DDOT":0},{"OBJECT_NAME":"QZS-1R (QZSS/PRN 196)","OBJECT_ID":"2021-096A","EPOCH":"2026-03-06T19:46:38.510112","MEAN_MOTION":1.00290649,"ECCENTRICITY":0.0747759,"INCLINATION":37.2488,"RA_OF_ASC_NODE":81.0937,"ARG_OF_PERICENTER":269.7649,"MEAN_ANOMALY":244.5984,"EPHEMERIS_TYPE":0,"CLASSIFICATION_TYPE":"U","NORAD_CAT_ID":49336,"ELEMENT_SET_NO":999,"REV_AT_EPOCH":1598,"BSTAR":0,"MEAN_MOTION_DOT":-2.65e-6,"MEAN_MOTION_DDOT":0},{"OBJECT_NAME":"QZS-6 (QZSS/PRN 200)","OBJECT_ID":"2025-023A","EPOCH":"2026-03-06T19:31:24.969216","MEAN_MOTION":1.00269676,"ECCENTRICITY":0.0001829,"INCLINATION":0.0338,"RA_OF_ASC_NODE":296.0742,"ARG_OF_PERICENTER":48.7188,"MEAN_ANOMALY":203.0676,"EPHEMERIS_TYPE":0,"CLASSIFICATION_TYPE":"U","NORAD_CAT_ID":62876,"ELEMENT_SET_NO":999,"REV_AT_EPOCH":393,"BSTAR":0,"MEAN_MOTION_DOT":-2.36e-6,"MEAN_MOTION_DDOT":0}]
